[{"OBJECT_NAME":"CENTISPACE-1 S9","OBJECT_ID":"2025-007D","EPOCH":"2026-03-09T22:07:56.074656","MEAN_MOTION":13.83191394,"ECCENTRICITY":0.00092392,"INCLINATION":54.9818,"RA_OF_ASC_NODE":279.4927,"ARG_OF_PERICENTER":251.979,"MEAN_ANOMALY":108.0161,"EPHEMERIS_TYPE":0,"CLASSIFICATION_TYPE":"U","NORAD_CAT_ID":62578,"ELEMENT_SET_NO":999,"REV_AT_EPOCH":6100,"BSTAR":0.00010536643,"MEAN_MOTION_DOT":-2.5e-7,"MEAN_MOTION_DDOT":0},{"OBJECT_NAME":"SCOUT A DEB","OBJECT_ID":"1968-012C","EPOCH":"2026-03-09T15:29:03.907104","MEAN_MOTION":13.89239938,"ECCENTRICITY":0.0049345,"INCLINATION":90.2071,"RA_OF_ASC_NODE":111.2814,"ARG_OF_PERICENTER":294.8289,"MEAN_ANOMALY":194.4447,"EPHEMERIS_TYPE":0,"CLASSIFICATION_TYPE":"U","NORAD_CAT_ID":3213,"ELEMENT_SET_NO":999,"REV_AT_EPOCH":59662,"BSTAR":0.0003881,"MEAN_MOTION_DOT":4.86e-6,"MEAN_MOTION_DDOT":0}]
